STARLINK-35764          
1 67109U 25299H   26013.04477593  .00033555  00000+0  80679-3 0  9994
2 67109  43.0001 129.5198 0001402 279.9552  80.1147 15.40707969  5626
STARLINK-35781          
1 67110U 25299J   26013.25002315  .00079548  00000+0  18936-2 0  9993
2 67110  42.9998 128.1239 0001481 266.2420 240.7022 15.40671365  5820
STARLINK-35875          
1 67111U 25299K   26013.25002315  .00060943  00000+0  14560-2 0  9992
2 67111  42.9991 127.8826 0001474 275.5381 330.9202 15.40670150  5769
STARLINK-35906          
1 67112U 25299L   26013.25002315 -.02386348  00000+0 -60556-1 0  9992
2 67112  42.9998 127.7034 0001273 252.8191  67.3347 15.42462410  5762
STARLINK-35789          
1 67113U 25299M   26013.02461208  .00030110  00000+0  72521-3 0  9994
2 67113  42.9896 129.3661 0000597 312.1188  47.9617 15.40699750  4533
STARLINK-36180          
1 67114U 25299N   26012.02770772  .00113514  00000+0  19135-2 0  9994
2 67114  42.9985 134.7758 0001668 302.1943  57.8755 15.50569189  4387
STARLINK-35892          
1 67115U 25299P   26013.29960258  .00041865  00000+0  10032-2 0  9991
2 67115  42.9942 127.9832 0001545 183.5391 176.5454 15.40724144  4579
STARLINK-35738          
1 67116U 25299Q   26013.29288300  .00046920  00000+0  11229-2 0  9999
2 67116  43.0002 127.9399 0001267 277.5546  82.5166 15.40717118  4573
STARLINK-35674          
1 67117U 25299R   26012.72510352  .00041172  00000+0  98654-3 0  9994
2 67117  42.9998 131.4223 0002047 263.6072  96.4552 15.40730354  4489
STARLINK-35701          
1 67118U 25299S   26013.25002315  .00074349  00000+0  17702-2 0  9995
2 67118  42.9992 127.8513 0001747 264.3218 354.5399 15.40692285  5827
STARLINK-36179          
1 67119U 25299T   26013.04700675  .00044061  00000+0  10550-2 0  9999
2 67119  42.9996 129.5340 0002438 266.8821  93.1756 15.40725555  4531
STARLINK-36217          
1 67120U 25299U   26013.25002315  .00071370  00000+0  17019-2 0  9990
2 67120  42.9995 127.7298 0001084 285.1471  23.5311 15.40664323  5872
