CCSDS_OMM_VERS = 2.0
CREATION_DATE  = 
ORIGINATOR     = 

OBJECT_NAME    = STARLINK-35764
OBJECT_ID      = 2025-299H
CENTER_NAME    = EARTH
REF_FRAME      = TEME
TIME_SYSTEM    = UTC
MEAN_ELEMENT_THEORY = SGP/SGP4

EPOCH          = 2026-01-13T01:04:28.640352
MEAN_MOTION    = 15.40707969
ECCENTRICITY   = .00014029
INCLINATION    = 43.0001
RA_OF_ASC_NODE = 129.5198
ARG_OF_PERICENTER = 279.9552
MEAN_ANOMALY   = 80.1147

EPHEMERIS_TYPE = 0
CLASSIFICATION_TYPE = U
NORAD_CAT_ID   = 67109
ELEMENT_SET_NO = 999
REV_AT_EPOCH   = 562
BSTAR          = .80678764E-3
MEAN_MOTION_DOT = .33555E-3
MEAN_MOTION_DDOT = 0

CCSDS_OMM_VERS = 2.0
CREATION_DATE  = 
ORIGINATOR     = 

OBJECT_NAME    = STARLINK-35781
OBJECT_ID      = 2025-299J
CENTER_NAME    = EARTH
REF_FRAME      = TEME
TIME_SYSTEM    = UTC
MEAN_ELEMENT_THEORY = SGP/SGP4

EPOCH          = 2026-01-13T06:00:02.000160
MEAN_MOTION    = 15.40671365
ECCENTRICITY   = .00014813
INCLINATION    = 42.9998
RA_OF_ASC_NODE = 128.1239
ARG_OF_PERICENTER = 266.2420
MEAN_ANOMALY   = 240.7022

EPHEMERIS_TYPE = 0
CLASSIFICATION_TYPE = U
NORAD_CAT_ID   = 67110
ELEMENT_SET_NO = 999
REV_AT_EPOCH   = 582
BSTAR          = .18935542E-2
MEAN_MOTION_DOT = .79548E-3
MEAN_MOTION_DDOT = 0

CCSDS_OMM_VERS = 2.0
CREATION_DATE  = 
ORIGINATOR     = 

OBJECT_NAME    = STARLINK-35875
OBJECT_ID      = 2025-299K
CENTER_NAME    = EARTH
REF_FRAME      = TEME
TIME_SYSTEM    = UTC
MEAN_ELEMENT_THEORY = SGP/SGP4

EPOCH          = 2026-01-13T06:00:02.000160
MEAN_MOTION    = 15.40670150
ECCENTRICITY   = .00014744
INCLINATION    = 42.9991
RA_OF_ASC_NODE = 127.8826
ARG_OF_PERICENTER = 275.5381
MEAN_ANOMALY   = 330.9202

EPHEMERIS_TYPE = 0
CLASSIFICATION_TYPE = U
NORAD_CAT_ID   = 67111
ELEMENT_SET_NO = 999
REV_AT_EPOCH   = 576
BSTAR          = .14559815E-2
MEAN_MOTION_DOT = .60943E-3
MEAN_MOTION_DDOT = 0

CCSDS_OMM_VERS = 2.0
CREATION_DATE  = 
ORIGINATOR     = 

OBJECT_NAME    = STARLINK-35906
OBJECT_ID      = 2025-299L
CENTER_NAME    = EARTH
REF_FRAME      = TEME
TIME_SYSTEM    = UTC
MEAN_ELEMENT_THEORY = SGP/SGP4

EPOCH          = 2026-01-13T06:00:02.000160
MEAN_MOTION    = 15.42462410
ECCENTRICITY   = .00012734
INCLINATION    = 42.9998
RA_OF_ASC_NODE = 127.7034
ARG_OF_PERICENTER = 252.8191
MEAN_ANOMALY   = 67.3347

EPHEMERIS_TYPE = 0
CLASSIFICATION_TYPE = U
NORAD_CAT_ID   = 67112
ELEMENT_SET_NO = 999
REV_AT_EPOCH   = 576
BSTAR          = -.60555823E-1
MEAN_MOTION_DOT = -.2386348E-1
MEAN_MOTION_DDOT = 0

CCSDS_OMM_VERS = 2.0
CREATION_DATE  = 
ORIGINATOR     = 

OBJECT_NAME    = STARLINK-35789
OBJECT_ID      = 2025-299M
CENTER_NAME    = EARTH
REF_FRAME      = TEME
TIME_SYSTEM    = UTC
MEAN_ELEMENT_THEORY = SGP/SGP4

EPOCH          = 2026-01-13T00:35:26.483712
MEAN_MOTION    = 15.40699750
ECCENTRICITY   = .00005978
INCLINATION    = 42.9896
RA_OF_ASC_NODE = 129.3661
ARG_OF_PERICENTER = 312.1188
MEAN_ANOMALY   = 47.9617

EPHEMERIS_TYPE = 0
CLASSIFICATION_TYPE = U
NORAD_CAT_ID   = 67113
ELEMENT_SET_NO = 999
REV_AT_EPOCH   = 453
BSTAR          = .72521006E-3
MEAN_MOTION_DOT = .3011E-3
MEAN_MOTION_DDOT = 0

CCSDS_OMM_VERS = 2.0
CREATION_DATE  = 
ORIGINATOR     = 

OBJECT_NAME    = STARLINK-36180
OBJECT_ID      = 2025-299N
CENTER_NAME    = EARTH
REF_FRAME      = TEME
TIME_SYSTEM    = UTC
MEAN_ELEMENT_THEORY = SGP/SGP4

EPOCH          = 2026-01-12T00:39:53.947008
MEAN_MOTION    = 15.50569189
ECCENTRICITY   = .00016686
INCLINATION    = 42.9985
RA_OF_ASC_NODE = 134.7758
ARG_OF_PERICENTER = 302.1943
MEAN_ANOMALY   = 57.8755

EPHEMERIS_TYPE = 0
CLASSIFICATION_TYPE = U
NORAD_CAT_ID   = 67114
ELEMENT_SET_NO = 999
REV_AT_EPOCH   = 438
BSTAR          = .19134528E-2
MEAN_MOTION_DOT = .113514E-2
MEAN_MOTION_DDOT = 0

CCSDS_OMM_VERS = 2.0
CREATION_DATE  = 
ORIGINATOR     = 

OBJECT_NAME    = STARLINK-35892
OBJECT_ID      = 2025-299P
CENTER_NAME    = EARTH
REF_FRAME      = TEME
TIME_SYSTEM    = UTC
MEAN_ELEMENT_THEORY = SGP/SGP4

EPOCH          = 2026-01-13T07:11:25.662912
MEAN_MOTION    = 15.40724144
ECCENTRICITY   = .00015458
INCLINATION    = 42.9942
RA_OF_ASC_NODE = 127.9832
ARG_OF_PERICENTER = 183.5391
MEAN_ANOMALY   = 176.5454

EPHEMERIS_TYPE = 0
CLASSIFICATION_TYPE = U
NORAD_CAT_ID   = 67115
ELEMENT_SET_NO = 999
REV_AT_EPOCH   = 457
BSTAR          = .100316E-2
MEAN_MOTION_DOT = .41865E-3
MEAN_MOTION_DDOT = 0

CCSDS_OMM_VERS = 2.0
CREATION_DATE  = 
ORIGINATOR     = 

OBJECT_NAME    = STARLINK-35738
OBJECT_ID      = 2025-299Q
CENTER_NAME    = EARTH
REF_FRAME      = TEME
TIME_SYSTEM    = UTC
MEAN_ELEMENT_THEORY = SGP/SGP4

EPOCH          = 2026-01-13T07:01:45.091200
MEAN_MOTION    = 15.40717118
ECCENTRICITY   = .00012671
INCLINATION    = 43.0002
RA_OF_ASC_NODE = 127.9399
ARG_OF_PERICENTER = 277.5546
MEAN_ANOMALY   = 82.5166

EPHEMERIS_TYPE = 0
CLASSIFICATION_TYPE = U
NORAD_CAT_ID   = 67116
ELEMENT_SET_NO = 999
REV_AT_EPOCH   = 457
BSTAR          = .1122934E-2
MEAN_MOTION_DOT = .4692E-3
MEAN_MOTION_DDOT = 0

CCSDS_OMM_VERS = 2.0
CREATION_DATE  = 
ORIGINATOR     = 

OBJECT_NAME    = STARLINK-35674
OBJECT_ID      = 2025-299R
CENTER_NAME    = EARTH
REF_FRAME      = TEME
TIME_SYSTEM    = UTC
MEAN_ELEMENT_THEORY = SGP/SGP4

EPOCH          = 2026-01-12T17:24:08.944128
MEAN_MOTION    = 15.40730354
ECCENTRICITY   = .0002047
INCLINATION    = 42.9998
RA_OF_ASC_NODE = 131.4223
ARG_OF_PERICENTER = 263.6072
MEAN_ANOMALY   = 96.4552

EPHEMERIS_TYPE = 0
CLASSIFICATION_TYPE = U
NORAD_CAT_ID   = 67117
ELEMENT_SET_NO = 999
REV_AT_EPOCH   = 448
BSTAR          = .98654438E-3
MEAN_MOTION_DOT = .41172E-3
MEAN_MOTION_DDOT = 0

CCSDS_OMM_VERS = 2.0
CREATION_DATE  = 
ORIGINATOR     = 

OBJECT_NAME    = STARLINK-35701
OBJECT_ID      = 2025-299S
CENTER_NAME    = EARTH
REF_FRAME      = TEME
TIME_SYSTEM    = UTC
MEAN_ELEMENT_THEORY = SGP/SGP4

EPOCH          = 2026-01-13T06:00:02.000160
MEAN_MOTION    = 15.40692285
ECCENTRICITY   = .00017477
INCLINATION    = 42.9992
RA_OF_ASC_NODE = 127.8513
ARG_OF_PERICENTER = 264.3218
MEAN_ANOMALY   = 354.5399

EPHEMERIS_TYPE = 0
CLASSIFICATION_TYPE = U
NORAD_CAT_ID   = 67118
ELEMENT_SET_NO = 999
REV_AT_EPOCH   = 582
BSTAR          = .17702338E-2
MEAN_MOTION_DOT = .74349E-3
MEAN_MOTION_DDOT = 0

CCSDS_OMM_VERS = 2.0
CREATION_DATE  = 
ORIGINATOR     = 

OBJECT_NAME    = STARLINK-36179
OBJECT_ID      = 2025-299T
CENTER_NAME    = EARTH
REF_FRAME      = TEME
TIME_SYSTEM    = UTC
MEAN_ELEMENT_THEORY = SGP/SGP4

EPOCH          = 2026-01-13T01:07:41.383200
MEAN_MOTION    = 15.40725555
ECCENTRICITY   = .00024381
INCLINATION    = 42.9996
RA_OF_ASC_NODE = 129.5340
ARG_OF_PERICENTER = 266.8821
MEAN_ANOMALY   = 93.1756

EPHEMERIS_TYPE = 0
CLASSIFICATION_TYPE = U
NORAD_CAT_ID   = 67119
ELEMENT_SET_NO = 999
REV_AT_EPOCH   = 453
BSTAR          = .10550143E-2
MEAN_MOTION_DOT = .44061E-3
MEAN_MOTION_DDOT = 0

CCSDS_OMM_VERS = 2.0
CREATION_DATE  = 
ORIGINATOR     = 

OBJECT_NAME    = STARLINK-36217
OBJECT_ID      = 2025-299U
CENTER_NAME    = EARTH
REF_FRAME      = TEME
TIME_SYSTEM    = UTC
MEAN_ELEMENT_THEORY = SGP/SGP4

EPOCH          = 2026-01-13T06:00:02.000160
MEAN_MOTION    = 15.40664323
ECCENTRICITY   = .00010844
INCLINATION    = 42.9995
RA_OF_ASC_NODE = 127.7298
ARG_OF_PERICENTER = 285.1471
MEAN_ANOMALY   = 23.5311

EPHEMERIS_TYPE = 0
CLASSIFICATION_TYPE = U
NORAD_CAT_ID   = 67120
ELEMENT_SET_NO = 999
REV_AT_EPOCH   = 587
BSTAR          = .17018556E-2
MEAN_MOTION_DOT = .7137E-3
MEAN_MOTION_DDOT = 0

